ONEWEB-0012             
1 44057U 19010A   26067.02522499  .00000011  00000+0 -45695-5 0  9991
2 44057  87.9002 248.9071 0001188  98.7397 261.3868 13.16593399338254
ONEWEB-0010             
1 44058U 19010B   26067.05055675  .00000010  00000+0 -80152-5 0  9998
2 44058  87.9004 248.8974 0001941 101.9015 258.2333 13.16593331338303
ONEWEB-0008             
1 44059U 19010C   26066.54391351 -.00000014  00000+0 -69557-4 0  9996
2 44059  87.9002 248.9957 0001613  87.5197 272.6119 13.16592889338354
ONEWEB-0007             
1 44060U 19010D   26067.10672192 -.00000698  00000+0 -18869-2 0  9992
2 44060  87.8937 279.4071 0001478 101.0632 259.0665 13.15552162338087
ONEWEB-0006             
1 44061U 19010E   26067.11069272  .00000177  00000+0  43675-3 0  9997
2 44061  87.8951 279.3603 0001728  96.1768 263.9559 13.15546580338135
ONEWEB-0011             
1 44062U 19010F   26067.07899354 -.00000112  00000+0 -33195-3 0  9992
2 44062  87.8946 279.3741 0001753  88.2193 271.9139 13.15551363338122
ONEWEB-0013             
1 45131U 20008A   26067.07816379  .00000746  00000+0  21297-2 0  9995
2 45131  87.8438  73.2359 0000843  84.7063 275.4160 13.09448889292839
ONEWEB-0017             
1 45132U 20008B   26066.67331886 -.00000206  00000+0 -62641-3 0  9998
2 45132  87.8764  56.4831 0002019  90.8098 269.3260 13.10370269294656
ONEWEB-0020             
1 45133U 20008C   26066.94889228  .00000563  00000+0  15752-2 0  9991
2 45133  87.8778  56.4185 0001817  85.9915 274.1420 13.10374259295085
ONEWEB-0021             
1 45134U 20008D   26067.19289541  .00000575  00000+0  16105-2 0  9998
2 45134  87.8767  56.3943 0001767  88.5463 271.5867 13.10370240295426
ONEWEB-0023             
1 45136U 20008F   26066.51645191 -.00000055  00000+0 -19285-3 0  9990
2 45136  87.8760  56.5091 0001649  86.0511 274.0805 13.10370769294765
ONEWEB-0024             
1 45137U 20008G   26067.02358007  .00000503  00000+0  14057-2 0  9992
2 45137  87.8781  56.3925 0001831  87.1370 272.9966 13.10373206294990
ONEWEB-0025             
1 45138U 20008H   26067.03188887  .00000633  00000+0  17628-2 0  9992
2 45138  87.8774  56.3831 0001487  89.2649 270.8649 13.10875176295324
ONEWEB-0026             
1 45139U 20008J   26066.68386995  .00000744  00000+0  20645-2 0  9999
2 45139  87.8862  41.2460 0002032  84.3826 275.7534 13.11417830297806
ONEWEB-0028             
1 45140U 20008K   26066.48801562 -.00000443  00000+0 -12871-2 0  9991
2 45140  87.8850  41.2940 0001211  77.6446 282.4817 13.11414717295290
ONEWEB-0032             
1 45141U 20008L   26066.52225157 -.00000312  00000+0 -93055-3 0  9996
2 45141  87.8767  56.5143 0001409  81.3994 278.7293 13.10369229294988
ONEWEB-0033             
1 45142U 20008M   26066.49737583  .00000695  00000+0  19557-2 0  9990
2 45142  87.8763  56.5288 0002338  92.1611 267.9784 13.10373518294894
