[{"OBJECT_NAME":"ONEWEB-0012","OBJECT_ID":"2019-010A","EPOCH":"2026-03-08T00:36:19.439136","MEAN_MOTION":13.16593399,"ECCENTRICITY":0.0001188,"INCLINATION":87.9002,"RA_OF_ASC_NODE":248.9071,"ARG_OF_PERICENTER":98.7397,"MEAN_ANOMALY":261.3868,"EPHEMERIS_TYPE":0,"CLASSIFICATION_TYPE":"U","NORAD_CAT_ID":44057,"ELEMENT_SET_NO":999,"REV_AT_EPOCH":33825,"BSTAR":-4.5695e-6,"MEAN_MOTION_DOT":1.1e-7,"MEAN_MOTION_DDOT":0},{"OBJECT_NAME":"ONEWEB-0010","OBJECT_ID":"2019-010B","EPOCH":"2026-03-08T01:12:48.103200","MEAN_MOTION":13.16593331,"ECCENTRICITY":0.0001941,"INCLINATION":87.9004,"RA_OF_ASC_NODE":248.8974,"ARG_OF_PERICENTER":101.9015,"MEAN_ANOMALY":258.2333,"EPHEMERIS_TYPE":0,"CLASSIFICATION_TYPE":"U","NORAD_CAT_ID":44058,"ELEMENT_SET_NO":999,"REV_AT_EPOCH":33830,"BSTAR":-8.0152e-6,"MEAN_MOTION_DOT":1.0e-7,"MEAN_MOTION_DDOT":0},{"OBJECT_NAME":"ONEWEB-0008","OBJECT_ID":"2019-010C","EPOCH":"2026-03-07T13:03:14.127264","MEAN_MOTION":13.16592889,"ECCENTRICITY":0.0001613,"INCLINATION":87.9002,"RA_OF_ASC_NODE":248.9957,"ARG_OF_PERICENTER":87.5197,"MEAN_ANOMALY":272.6119,"EPHEMERIS_TYPE":0,"CLASSIFICATION_TYPE":"U","NORAD_CAT_ID":44059,"ELEMENT_SET_NO":999,"REV_AT_EPOCH":33835,"BSTAR":-6.9557e-5,"MEAN_MOTION_DOT":-1.4e-7,"MEAN_MOTION_DDOT":0},{"OBJECT_NAME":"ONEWEB-0007","OBJECT_ID":"2019-010D","EPOCH":"2026-03-08T02:33:40.773888","MEAN_MOTION":13.15552162,"ECCENTRICITY":0.0001478,"INCLINATION":87.8937,"RA_OF_ASC_NODE":279.4071,"ARG_OF_PERICENTER":101.0632,"MEAN_ANOMALY":259.0665,"EPHEMERIS_TYPE":0,"CLASSIFICATION_TYPE":"U","NORAD_CAT_ID":44060,"ELEMENT_SET_NO":999,"REV_AT_EPOCH":33808,"BSTAR":-0.0018869,"MEAN_MOTION_DOT":-6.98e-6,"MEAN_MOTION_DDOT":0},{"OBJECT_NAME":"ONEWEB-0006","OBJECT_ID":"2019-010E","EPOCH":"2026-03-08T02:39:23.851008","MEAN_MOTION":13.1554658,"ECCENTRICITY":0.0001728,"INCLINATION":87.8951,"RA_OF_ASC_NODE":279.3603,"ARG_OF_PERICENTER":96.1768,"MEAN_ANOMALY":263.9559,"EPHEMERIS_TYPE":0,"CLASSIFICATION_TYPE":"U","NORAD_CAT_ID":44061,"ELEMENT_SET_NO":999,"REV_AT_EPOCH":33813,"BSTAR":0.00043675,"MEAN_MOTION_DOT":1.77e-6,"MEAN_MOTION_DDOT":0},{"OBJECT_NAME":"ONEWEB-0011","OBJECT_ID":"2019-010F","EPOCH":"2026-03-08T01:53:45.041856","MEAN_MOTION":13.15551363,"ECCENTRICITY":0.0001753,"INCLINATION":87.8946,"RA_OF_ASC_NODE":279.3741,"ARG_OF_PERICENTER":88.2193,"MEAN_ANOMALY":271.9139,"EPHEMERIS_TYPE":0,"CLASSIFICATION_TYPE":"U","NORAD_CAT_ID":44062,"ELEMENT_SET_NO":999,"REV_AT_EPOCH":33812,"BSTAR":-0.00033195,"MEAN_MOTION_DOT":-1.12e-6,"MEAN_MOTION_DDOT":0},{"OBJECT_NAME":"ONEWEB-0013","OBJECT_ID":"2020-008A","EPOCH":"2026-03-08T01:52:33.351456","MEAN_MOTION":13.09448889,"ECCENTRICITY":8.43e-5,"INCLINATION":87.8438,"RA_OF_ASC_NODE":73.2359,"ARG_OF_PERICENTER":84.7063,"MEAN_ANOMALY":275.416,"EPHEMERIS_TYPE":0,"CLASSIFICATION_TYPE":"U","NORAD_CAT_ID":45131,"ELEMENT_SET_NO":999,"REV_AT_EPOCH":29283,"BSTAR":0.0021297,"MEAN_MOTION_DOT":7.46e-6,"MEAN_MOTION_DDOT":0},{"OBJECT_NAME":"ONEWEB-0017","OBJECT_ID":"2020-008B","EPOCH":"2026-03-07T16:09:34.749504","MEAN_MOTION":13.10370269,"ECCENTRICITY":0.00020196,"INCLINATION":87.8764,"RA_OF_ASC_NODE":56.4831,"ARG_OF_PERICENTER":90.8098,"MEAN_ANOMALY":269.326,"EPHEMERIS_TYPE":0,"CLASSIFICATION_TYPE":"U","NORAD_CAT_ID":45132,"ELEMENT_SET_NO":999,"REV_AT_EPOCH":29465,"BSTAR":-0.00062640737,"MEAN_MOTION_DOT":-2.06e-6,"MEAN_MOTION_DDOT":0},{"OBJECT_NAME":"ONEWEB-0020","OBJECT_ID":"2020-008C","EPOCH":"2026-03-07T22:46:24.292992","MEAN_MOTION":13.10374259,"ECCENTRICITY":0.00018178,"INCLINATION":87.8778,"RA_OF_ASC_NODE":56.4185,"ARG_OF_PERICENTER":85.9915,"MEAN_ANOMALY":274.142,"EPHEMERIS_TYPE":0,"CLASSIFICATION_TYPE":"U","NORAD_CAT_ID":45133,"ELEMENT_SET_NO":999,"REV_AT_EPOCH":29508,"BSTAR":0.0015751856,"MEAN_MOTION_DOT":5.63e-6,"MEAN_MOTION_DDOT":0},{"OBJECT_NAME":"ONEWEB-0021","OBJECT_ID":"2020-008D","EPOCH":"2026-03-08T04:37:46.163424","MEAN_MOTION":13.1037024,"ECCENTRICITY":0.0001767,"INCLINATION":87.8767,"RA_OF_ASC_NODE":56.3943,"ARG_OF_PERICENTER":88.5463,"MEAN_ANOMALY":271.5867,"EPHEMERIS_TYPE":0,"CLASSIFICATION_TYPE":"U","NORAD_CAT_ID":45134,"ELEMENT_SET_NO":999,"REV_AT_EPOCH":29542,"BSTAR":0.0016105,"MEAN_MOTION_DOT":5.75e-6,"MEAN_MOTION_DDOT":0},{"OBJECT_NAME":"ONEWEB-0023","OBJECT_ID":"2020-008F","EPOCH":"2026-03-07T12:23:41.445024","MEAN_MOTION":13.10370769,"ECCENTRICITY":0.0001649,"INCLINATION":87.876,"RA_OF_ASC_NODE":56.5091,"ARG_OF_PERICENTER":86.0511,"MEAN_ANOMALY":274.0805,"EPHEMERIS_TYPE":0,"CLASSIFICATION_TYPE":"U","NORAD_CAT_ID":45136,"ELEMENT_SET_NO":999,"REV_AT_EPOCH":29476,"BSTAR":-0.00019285455,"MEAN_MOTION_DOT":-5.5e-7,"MEAN_MOTION_DDOT":0},{"OBJECT_NAME":"ONEWEB-0024","OBJECT_ID":"2020-008G","EPOCH":"2026-03-08T00:33:57.318048","MEAN_MOTION":13.10373206,"ECCENTRICITY":0.0001831,"INCLINATION":87.8781,"RA_OF_ASC_NODE":56.3925,"ARG_OF_PERICENTER":87.137,"MEAN_ANOMALY":272.9966,"EPHEMERIS_TYPE":0,"CLASSIFICATION_TYPE":"U","NORAD_CAT_ID":45137,"ELEMENT_SET_NO":999,"REV_AT_EPOCH":29499,"BSTAR":0.0014057,"MEAN_MOTION_DOT":5.03e-6,"MEAN_MOTION_DDOT":0},{"OBJECT_NAME":"ONEWEB-0025","OBJECT_ID":"2020-008H","EPOCH":"2026-03-08T00:45:55.198368","MEAN_MOTION":13.10875176,"ECCENTRICITY":0.0001487,"INCLINATION":87.8774,"RA_OF_ASC_NODE":56.3831,"ARG_OF_PERICENTER":89.2649,"MEAN_ANOMALY":270.8649,"EPHEMERIS_TYPE":0,"CLASSIFICATION_TYPE":"U","NORAD_CAT_ID":45138,"ELEMENT_SET_NO":999,"REV_AT_EPOCH":29532,"BSTAR":0.0017628,"MEAN_MOTION_DOT":6.33e-6,"MEAN_MOTION_DDOT":0},{"OBJECT_NAME":"ONEWEB-0026","OBJECT_ID":"2020-008J","EPOCH":"2026-03-07T16:24:46.363680","MEAN_MOTION":13.1141783,"ECCENTRICITY":0.00020327,"INCLINATION":87.8862,"RA_OF_ASC_NODE":41.246,"ARG_OF_PERICENTER":84.3826,"MEAN_ANOMALY":275.7534,"EPHEMERIS_TYPE":0,"CLASSIFICATION_TYPE":"U","NORAD_CAT_ID":45139,"ELEMENT_SET_NO":999,"REV_AT_EPOCH":29780,"BSTAR":0.0020645301,"MEAN_MOTION_DOT":7.44e-6,"MEAN_MOTION_DDOT":0},{"OBJECT_NAME":"ONEWEB-0028","OBJECT_ID":"2020-008K","EPOCH":"2026-03-07T11:42:44.549568","MEAN_MOTION":13.11414717,"ECCENTRICITY":0.00012115,"INCLINATION":87.885,"RA_OF_ASC_NODE":41.294,"ARG_OF_PERICENTER":77.6446,"MEAN_ANOMALY":282.4817,"EPHEMERIS_TYPE":0,"CLASSIFICATION_TYPE":"U","NORAD_CAT_ID":45140,"ELEMENT_SET_NO":999,"REV_AT_EPOCH":29529,"BSTAR":-0.0012870543,"MEAN_MOTION_DOT":-4.43e-6,"MEAN_MOTION_DDOT":0},{"OBJECT_NAME":"ONEWEB-0032","OBJECT_ID":"2020-008L","EPOCH":"2026-03-07T12:32:02.535648","MEAN_MOTION":13.10369229,"ECCENTRICITY":0.0001409,"INCLINATION":87.8767,"RA_OF_ASC_NODE":56.5143,"ARG_OF_PERICENTER":81.3994,"MEAN_ANOMALY":278.7293,"EPHEMERIS_TYPE":0,"CLASSIFICATION_TYPE":"U","NORAD_CAT_ID":45141,"ELEMENT_SET_NO":999,"REV_AT_EPOCH":29498,"BSTAR":-0.00093055,"MEAN_MOTION_DOT":-3.12e-6,"MEAN_MOTION_DDOT":0},{"OBJECT_NAME":"ONEWEB-0033","OBJECT_ID":"2020-008M","EPOCH":"2026-03-07T11:56:13.271712","MEAN_MOTION":13.10373518,"ECCENTRICITY":0.00023385,"INCLINATION":87.8763,"RA_OF_ASC_NODE":56.5288,"ARG_OF_PERICENTER":92.1611,"MEAN_ANOMALY":267.9784,"EPHEMERIS_TYPE":0,"CLASSIFICATION_TYPE":"U","NORAD_CAT_ID":45142,"ELEMENT_SET_NO":999,"REV_AT_EPOCH":29489,"BSTAR":0.0019557244,"MEAN_MOTION_DOT":6.95e-6,"MEAN_MOTION_DDOT":0}]
